[{"OBJECT_NAME":"OBJECT C","OBJECT_ID":"2024-205C","EPOCH":"2026-03-08T05:00:29.089728","MEAN_MOTION":15.13448144,"ECCENTRICITY":0.00443832,"INCLINATION":97.4204,"RA_OF_ASC_NODE":141.0161,"ARG_OF_PERICENTER":341.9375,"MEAN_ANOMALY":18.0277,"EPHEMERIS_TYPE":0,"CLASSIFICATION_TYPE":"U","NORAD_CAT_ID":61896,"ELEMENT_SET_NO":999,"REV_AT_EPOCH":7297,"BSTAR":0.00067176952,"MEAN_MOTION_DOT":0.00012247,"MEAN_MOTION_DDOT":0},{"OBJECT_NAME":"OKEAN-2","OBJECT_ID":"1990-018A","EPOCH":"2026-03-09T23:36:10.183680","MEAN_MOTION":15.15649196,"ECCENTRICITY":0.00049727,"INCLINATION":82.5017,"RA_OF_ASC_NODE":331.5686,"ARG_OF_PERICENTER":303.4328,"MEAN_ANOMALY":67.9927,"EPHEMERIS_TYPE":0,"CLASSIFICATION_TYPE":"U","NORAD_CAT_ID":20510,"ELEMENT_SET_NO":999,"REV_AT_EPOCH":93903,"BSTAR":0.00028442133,"MEAN_MOTION_DOT":5.437e-5,"MEAN_MOTION_DDOT":0}]
